IRIDIUM 26              
1 24903U 97043A   25139.49977495  .00000450  00000+0  14476-3 0  9998
2 24903  86.3932 122.6745 0002320  93.6663 266.4800 14.37122524453096
IRIDIUM 22              
1 24907U 97043E   25138.91813015  .00000441  00000+0  14514-3 0  9998
2 24907  86.3938 126.4324 0002352  89.4095 270.7371 14.35938449452570
DUMMY MASS 1            
1 24925U 97048A   25139.07647563  .00000477  00000+0  50257-4 0  9998
2 24925  86.3341 148.7888 0004424 239.0176 121.0614 14.86964123501044
DUMMY MASS 2            
1 24926U 97048B   25139.10108000  .00000457  00000+0  48248-4 0  9996
2 24926  86.3343 150.3784 0005035 257.3063 102.7599 14.86716676500829
IRIDIUM 29              
1 24944U 97051A   25138.88172914  .00000471  00000+0  15410-3 0  9999
2 24944  86.3965 156.1871 0002369  85.8284 274.3184 14.36443950449067
IRIDIUM 33              
1 24946U 97051C   25138.76172662  .00000358  00000+0  11916-3 0  9999
2 24946  86.3879 155.4950 0008387 158.9159 201.2384 14.34876185448521
IRIDIUM 28              
1 24948U 97051E   25138.52617680  .00000403  00000+0  12834-3 0  9990
2 24948  86.3968 153.8703 0002344 102.1596 257.9864 14.37366603449583
IRIDIUM 36              
1 24967U 97056C   25139.19015794  .00000402  00000+0  12737-3 0  9999
2 24967  86.4006 185.1697 0002578  95.2051 264.9440 14.37588036448050
